EUTELSAT HOTBIRD 13C    
1 33459U 08065A   26196.76094102 -.00000295  00000+0  00000+0 0  9991
2 33459   3.0218  78.8515 0003385  37.4813  40.8963  1.00270541 47639
EXPRESS-AM44            
1 33595U 09007A   26196.84003395 -.00000102  00000+0  00000+0 0  9999
2 33595   3.5345  78.0387 0003628  31.1724 115.8544  1.00271107 52573
NSS-9                   
1 33749U 09008A   26196.73589421  .00000060  00000+0  00000+0 0  9990
2 33749   1.3336  82.3720 0001879  21.5180 277.6686  1.00272169 63805
TELSTAR 11N             
1 34111U 09009A   26196.76345435 -.00000261  00000+0  00000+0 0  9997
2 34111   0.0368 261.8340 0002197 203.7514  65.2936  1.00273068 46530
WGS F2 (USA 204)        
1 34713U 09017A   26196.78233431  .00000058  00000+0  00000+0 0  9991
2 34713   0.0163  43.9281 0000304 186.7857  42.0295  1.00270306 45905
SES-7 (PROTOSTAR 2)     
1 34941U 09027A   26196.79234247 -.00000355  00000+0  00000+0 0  9993
2 34941   0.0103  43.3603 0001424 156.0754 127.6705  1.00269616 62912
MEASAT-3A               
1 35362U 09032A   26195.09162029 -.00000117  00000+0  00000+0 0  9993
2 35362   0.0359 317.7686 0002568 143.9350  23.2173  1.00269864  8307
GOES 14                 
1 35491U 09033A   26196.79563580 -.00000370  00000+0  00000+0 0  9993
2 35491   1.7615  82.6838 0001935  40.3025 221.7758  1.00097780  6876
FM-5                    
1 35493U 09034A   26194.90035760 -.00000205  00000+0  00000+0 0  9998
2 35493   0.0457 259.5714 0000757  86.9227 183.2440  1.00271245 46912
TERRESTAR-1             
1 35496U 09035A   26194.52058797 -.00000064  00000+0  00000+0 0  9998
2 35496   5.1989  48.7738 0002618  55.2029 263.8324  1.00270674 62393
ASIASAT 5               
1 35696U 09042A   26196.86212803  .00000000  00000+0  00000+0 0  9996
2 35696   0.0293  75.6968 0001485  31.7547 237.1888  1.00266646 61994
JCSAT-12 (JCSAT-RA)     
1 35755U 09044A   26196.79710916 -.00000338  00000+0  00000+0 0  9999
2 35755   0.0547 264.2611 0000807 289.9448 158.4427  1.00271824 61894
OPTUS D3                
1 35756U 09044B   26193.95034191 -.00000147  00000+0  00000+0 0  9997
2 35756   0.8917 268.2973 0002923 204.5770 316.2131  1.00268614 61823
NIMIQ 5                 
1 35873U 09050A   26196.61394740 -.00000267  00000+0  00000+0 0  9992
2 35873   0.0430 236.2492 0002553 233.4627 332.0601  1.00270652 61628
AMAZONAS 2              
1 35942U 09054A   26196.75669433 -.00000270  00000+0  00000+0 0  9996
2 35942   1.8874  82.6808 0003178  33.0567  18.2643  1.00269752 61472
COMSATBW-1              
1 35943U 09054B   26196.74905728  .00000015  00000+0  00000+0 0  9992
2 35943   0.0642 172.4472 0002666 302.8516 150.9644  1.00270037 61590
NSS-12                  
1 36032U 09058A   26196.75461519  .00000062  00000+0  00000+0 0  9994
2 36032   0.0914 269.4665 0004876 169.4005 183.3742  1.00270826 61201
THOR 6                  
1 36033U 09058B   26196.77075617  .00000000  00000+0  00000+0 0  9999
2 36033   0.0184  82.0668 0001648  35.1732  93.0081  1.00269848 61297
INTELSAT 14 (IS-14)     
1 36097U 09064A   26196.76198102 -.00000284  00000+0  00000+0 0  9995
2 36097   0.0162 318.7928 0002222 165.3736  38.7348  1.00268466 60892
EUTELSAT 36B            
1 36101U 09065A   26196.85222249  .00000101  00000+0  00000+0 0  9999
2 36101   0.5616  81.3351 0005774  34.2562 175.4102  1.00274205 60992
INTELSAT 15 (IS-15)     
1 36106U 09067A   26196.73030927 -.00000194  00000+0  00000+0 0  9996
2 36106   0.0165 355.9876 0002247 125.1274 160.4945  1.00268580 41510
WGS F3 (USA 211)        
1 36108U 09068A   26196.74516759  .00000054  00000+0  00000+0 0  9996
2 36108   0.2979  85.6112 0000666 101.0929 245.1494  1.00270754 46870
DIRECTV 12              
1 36131U 09075A   26195.96641635 -.00000112  00000+0  00000+0 0  9991
2 36131   0.0065 109.4409 0000351 121.9560 306.6005  1.00271543 46831
BEIDOU-2 G1             
1 36287U 10001A   26196.87001473 -.00000292  00000+0  00000+0 0  9994
2 36287   4.3588  60.3028 0001873 286.1722  40.9007  1.00271757 60457
SDO                     
1 36395U 10005A   26196.34409456 -.00000103  00000+0  00000+0 0  9994
2 36395  34.7081  85.9138 0001836  46.0485 182.8654  1.00277108 60343
INTELSAT 16 (IS-16)     
1 36397U 10006A   26196.75574100 -.00000255  00000+0  00000+0 0  9999
2 36397   0.0115  50.8406 0002352  87.2169 351.3901  1.00269871 59948
EWS-G2 (GOES 15)        
1 36411U 10008A   26196.62058610  .00000011  00000+0  00000+0 0  9996
2 36411   1.3537  82.4543 0005259  54.0034  83.7244  1.00268697 59921
ECHOSTAR 14             
1 36499U 10010A   26196.74707427 -.00000010  00000+0  00000+0 0  9995
2 36499   0.0444 244.8040 0001889 211.9342 346.8759  1.00271424 46839
SES-1                   
1 36516U 10016A   26196.60831403 -.00000124  00000+0  00000+0 0  9994
2 36516   0.0349 294.2011 0002402 177.9711 299.2654  1.00271646 59311
ASTRA 3B                
1 36581U 10021A   26196.84688064  .00000125  00000+0  00000+0 0  9991
2 36581   1.5410  83.2068 0004400  21.8200 157.0313  1.00270451 59154
COMSATBW-2              
1 36582U 10021B   26195.56162044  .00000081  00000+0  00000+0 0  9996
2 36582   0.0518 117.8274 0002393  15.5284  14.4770  1.00273631 59237
BEIDOU-2 G3             
1 36590U 10024A   26196.64410752 -.00000146  00000+0  00000+0 0  9993
2 36590   4.5808  61.3805 0006895 359.6699 183.8699  1.00268356 59052
