OBJECT_NAME,OBJECT_ID,EPOCH,MEAN_MOTION,ECCENTRICITY,INCLINATION,RA_OF_ASC_NODE,ARG_OF_PERICENTER,MEAN_ANOMALY,EPHEMERIS_TYPE,CLASSIFICATION_TYPE,NORAD_CAT_ID,ELEMENT_SET_NO,REV_AT_EPOCH,BSTAR,MEAN_MOTION_DOT,MEAN_MOTION_DDOT
EUTELSAT HOTBIRD 13C,2008-065A,2026-07-15T18:15:45.304128,1.00270541,.0003385,3.0218,78.8515,37.4813,40.8963,0,U,33459,999,4763,0,-.295E-5,0
EXPRESS-AM44,2009-007A,2026-07-15T20:09:38.933280,1.00271107,.0003628,3.5345,78.0387,31.1724,115.8544,0,U,33595,999,5257,0,-.102E-5,0
NSS-9,2009-008A,2026-07-15T17:39:41.259744,1.00272169,.0001879,1.3336,82.3720,21.5180,277.6686,0,U,33749,999,6380,0,.6E-6,0
TELSTAR 11N,2009-009A,2026-07-15T18:19:22.455840,1.00273068,.0002197,0.0368,261.8340,203.7514,65.2936,0,U,34111,999,4653,0,-.261E-5,0
WGS F2 (USA 204),2009-017A,2026-07-15T18:46:33.684384,1.00270306,.0000304,0.0163,43.9281,186.7857,42.0295,0,U,34713,999,4590,0,.58E-6,0
SES-7 (PROTOSTAR 2),2009-027A,2026-07-15T19:00:58.389408,1.00269616,.0001424,0.0103,43.3603,156.0754,127.6705,0,U,34941,999,6291,0,-.355E-5,0
MEASAT-3A,2009-032A,2026-07-14T02:11:55.993056,1.00269864,.00025681,0.0359,317.7686,143.9350,23.2173,0,U,35362,999,830,0,-.117E-5,0
GOES 14,2009-033A,2026-07-15T19:05:42.933120,1.00097780,.0001935,1.7615,82.6838,40.3025,221.7758,0,U,35491,999,687,0,-.37E-5,0
FM-5,2009-034A,2026-07-13T21:36:30.896640,1.00271245,.00007579,0.0457,259.5714,86.9227,183.2440,0,U,35493,999,4691,0,-.205E-5,0
TERRESTAR-1,2009-035A,2026-07-13T12:29:38.800608,1.00270674,.00026182,5.1989,48.7738,55.2029,263.8324,0,U,35496,999,6239,0,-.64E-6,0
ASIASAT 5,2009-042A,2026-07-15T20:41:27.861792,1.00266646,.0001485,0.0293,75.6968,31.7547,237.1888,0,U,35696,999,6199,0,0,0
JCSAT-12 (JCSAT-RA),2009-044A,2026-07-15T19:07:50.231424,1.00271824,.0000807,0.0547,264.2611,289.9448,158.4427,0,U,35755,999,6189,0,-.338E-5,0
OPTUS D3,2009-044B,2026-07-12T22:48:29.541024,1.00268614,.00029239,0.8917,268.2973,204.5770,316.2131,0,U,35756,999,6182,0,-.147E-5,0
NIMIQ 5,2009-050A,2026-07-15T14:44:05.055360,1.00270652,.0002553,0.0430,236.2492,233.4627,332.0601,0,U,35873,999,6162,0,-.267E-5,0
AMAZONAS 2,2009-054A,2026-07-15T18:09:38.390112,1.00269752,.0003178,1.8874,82.6808,33.0567,18.2643,0,U,35942,999,6147,0,-.27E-5,0
COMSATBW-1,2009-054B,2026-07-15T17:58:38.548992,1.00270037,.0002666,0.0642,172.4472,302.8516,150.9644,0,U,35943,999,6159,0,.15E-6,0
NSS-12,2009-058A,2026-07-15T18:06:38.752416,1.00270826,.0004876,0.0914,269.4665,169.4005,183.3742,0,U,36032,999,6120,0,.62E-6,0
THOR 6,2009-058B,2026-07-15T18:29:53.333088,1.00269848,.0001648,0.0184,82.0668,35.1732,93.0081,0,U,36033,999,6129,0,0,0
INTELSAT 14 (IS-14),2009-064A,2026-07-15T18:17:15.160128,1.00268466,.0002222,0.0162,318.7928,165.3736,38.7348,0,U,36097,999,6089,0,-.284E-5,0
EUTELSAT 36B,2009-065A,2026-07-15T20:27:12.023136,1.00274205,.0005774,0.5616,81.3351,34.2562,175.4102,0,U,36101,999,6099,0,.101E-5,0
INTELSAT 15 (IS-15),2009-067A,2026-07-15T17:31:38.720928,1.00268580,.0002247,0.0165,355.9876,125.1274,160.4945,0,U,36106,999,4151,0,-.194E-5,0
WGS F3 (USA 211),2009-068A,2026-07-15T17:53:02.479776,1.00270754,.0000666,0.2979,85.6112,101.0929,245.1494,0,U,36108,999,4687,0,.54E-6,0
DIRECTV 12,2009-075A,2026-07-14T23:11:38.372640,1.00271543,.00003517,0.0065,109.4409,121.9560,306.6005,0,U,36131,999,4683,0,-.112E-5,0
BEIDOU-2 G1,2010-001A,2026-07-15T20:52:49.272672,1.00271757,.0001873,4.3588,60.3028,286.1722,40.9007,0,U,36287,999,6045,0,-.292E-5,0
SDO,2010-005A,2026-07-15T08:15:29.769984,1.00277108,.0001836,34.7081,85.9138,46.0485,182.8654,0,U,36395,999,6034,0,-.103E-5,0
INTELSAT 16 (IS-16),2010-006A,2026-07-15T18:08:16.022400,1.00269871,.0002352,0.0115,50.8406,87.2169,351.3901,0,U,36397,999,5994,0,-.255E-5,0
EWS-G2 (GOES 15),2010-008A,2026-07-15T14:53:38.639040,1.00268697,.0005259,1.3537,82.4543,54.0034,83.7244,0,U,36411,999,5992,0,.11E-6,0
ECHOSTAR 14,2010-010A,2026-07-15T17:55:47.216928,1.00271424,.0001889,0.0444,244.8040,211.9342,346.8759,0,U,36499,999,4683,0,-.1E-6,0
SES-1,2010-016A,2026-07-15T14:35:58.332192,1.00271646,.0002402,0.0349,294.2011,177.9711,299.2654,0,U,36516,999,5931,0,-.124E-5,0
ASTRA 3B,2010-021A,2026-07-15T20:19:30.487296,1.00270451,.00044,1.5410,83.2068,21.8200,157.0313,0,U,36581,999,5915,0,.125E-5,0
COMSATBW-2,2010-021B,2026-07-14T13:28:44.006016,1.00273631,.0002393,0.0518,117.8274,15.5284,14.4770,0,U,36582,999,5923,0,.81E-6,0
BEIDOU-2 G3,2010-024A,2026-07-15T15:27:30.889728,1.00268356,.0006895,4.5808,61.3805,359.6699,183.8699,0,U,36590,999,5905,0,-.146E-5,0
